CCSDS_OMM_VERS = 2.0
CREATION_DATE  = 
ORIGINATOR     = 

OBJECT_NAME    = SL-16 R/B
OBJECT_ID      = 1998-043G
CENTER_NAME    = EARTH
REF_FRAME      = TEME
TIME_SYSTEM    = UTC
MEAN_ELEMENT_THEORY = SGP/SGP4

EPOCH          = 2026-02-14T20:35:56.999904
MEAN_MOTION    = 14.26044206
ECCENTRICITY   = .0010973
INCLINATION    = 98.8214
RA_OF_ASC_NODE = 359.0656
ARG_OF_PERICENTER = 81.5401
MEAN_ANOMALY   = 278.7021

EPHEMERIS_TYPE = 0
CLASSIFICATION_TYPE = U
NORAD_CAT_ID   = 25400
ELEMENT_SET_NO = 999
REV_AT_EPOCH   = 43573
BSTAR          = .4307E-4
MEAN_MOTION_DOT = .58E-6
MEAN_MOTION_DDOT = 0

CCSDS_OMM_VERS = 2.0
CREATION_DATE  = 
ORIGINATOR     = 

OBJECT_NAME    = SL-16 R/B
OBJECT_ID      = 1998-045B
CENTER_NAME    = EARTH
REF_FRAME      = TEME
TIME_SYSTEM    = UTC
MEAN_ELEMENT_THEORY = SGP/SGP4

EPOCH          = 2026-02-14T23:17:39.274944
MEAN_MOTION    = 14.16187842
ECCENTRICITY   = .000565
INCLINATION    = 71.0087
RA_OF_ASC_NODE = 229.3505
ARG_OF_PERICENTER = 49.4421
MEAN_ANOMALY   = 310.7193

EPHEMERIS_TYPE = 0
CLASSIFICATION_TYPE = U
NORAD_CAT_ID   = 25407
ELEMENT_SET_NO = 999
REV_AT_EPOCH   = 42388
BSTAR          = .18037E-3
MEAN_MOTION_DOT = .309E-5
MEAN_MOTION_DDOT = 0

CCSDS_OMM_VERS = 2.0
CREATION_DATE  = 
ORIGINATOR     = 

OBJECT_NAME    = ISS (ZARYA)
OBJECT_ID      = 1998-067A
CENTER_NAME    = EARTH
REF_FRAME      = TEME
TIME_SYSTEM    = UTC
MEAN_ELEMENT_THEORY = SGP/SGP4

EPOCH          = 2026-02-14T19:05:08.562336
MEAN_MOTION    = 15.48601910
ECCENTRICITY   = .0011056
INCLINATION    = 51.6315
RA_OF_ASC_NODE = 185.5279
ARG_OF_PERICENTER = 98.8248
MEAN_ANOMALY   = 261.3993

EPHEMERIS_TYPE = 0
CLASSIFICATION_TYPE = U
NORAD_CAT_ID   = 25544
ELEMENT_SET_NO = 999
REV_AT_EPOCH   = 55278
BSTAR          = .15107E-3
MEAN_MOTION_DOT = .7779E-4
MEAN_MOTION_DDOT = 0

CCSDS_OMM_VERS = 2.0
CREATION_DATE  = 
ORIGINATOR     = 

OBJECT_NAME    = CZ-4B R/B
OBJECT_ID      = 1999-025C
CENTER_NAME    = EARTH
REF_FRAME      = TEME
TIME_SYSTEM    = UTC
MEAN_ELEMENT_THEORY = SGP/SGP4

EPOCH          = 2026-02-15T03:53:07.876608
MEAN_MOTION    = 14.18260652
ECCENTRICITY   = .0037915
INCLINATION    = 98.6672
RA_OF_ASC_NODE = 90.9721
ARG_OF_PERICENTER = 50.9851
MEAN_ANOMALY   = 17.4537

EPHEMERIS_TYPE = 0
CLASSIFICATION_TYPE = U
NORAD_CAT_ID   = 25732
ELEMENT_SET_NO = 999
REV_AT_EPOCH   = 38497
BSTAR          = .48063E-4
MEAN_MOTION_DOT = .57E-6
MEAN_MOTION_DDOT = 0

CCSDS_OMM_VERS = 2.0
CREATION_DATE  = 
ORIGINATOR     = 

OBJECT_NAME    = OKEAN-O
OBJECT_ID      = 1999-039A
CENTER_NAME    = EARTH
REF_FRAME      = TEME
TIME_SYSTEM    = UTC
MEAN_ELEMENT_THEORY = SGP/SGP4

EPOCH          = 2026-02-15T03:26:02.025600
MEAN_MOTION    = 14.80297249
ECCENTRICITY   = .0001833
INCLINATION    = 97.9493
RA_OF_ASC_NODE = 106.2581
ARG_OF_PERICENTER = 82.0327
MEAN_ANOMALY   = 278.1093

EPHEMERIS_TYPE = 0
CLASSIFICATION_TYPE = U
NORAD_CAT_ID   = 25860
ELEMENT_SET_NO = 999
REV_AT_EPOCH   = 43105
BSTAR          = .89568E-4
MEAN_MOTION_DOT = .63E-5
MEAN_MOTION_DDOT = 0

CCSDS_OMM_VERS = 2.0
CREATION_DATE  = 
ORIGINATOR     = 

OBJECT_NAME    = SL-16 R/B
OBJECT_ID      = 1999-039B
CENTER_NAME    = EARTH
REF_FRAME      = TEME
TIME_SYSTEM    = UTC
MEAN_ELEMENT_THEORY = SGP/SGP4

EPOCH          = 2026-02-15T03:27:42.437088
MEAN_MOTION    = 14.81698644
ECCENTRICITY   = .0014151
INCLINATION    = 98.0016
RA_OF_ASC_NODE = 105.2686
ARG_OF_PERICENTER = 335.6061
MEAN_ANOMALY   = 24.4480

EPHEMERIS_TYPE = 0
CLASSIFICATION_TYPE = U
NORAD_CAT_ID   = 25861
ELEMENT_SET_NO = 999
REV_AT_EPOCH   = 43352
BSTAR          = .76769E-4
MEAN_MOTION_DOT = .551E-5
MEAN_MOTION_DDOT = 0

CCSDS_OMM_VERS = 2.0
CREATION_DATE  = 
ORIGINATOR     = 

OBJECT_NAME    = DELTA 2 R/B
OBJECT_ID      = 1999-041E
CENTER_NAME    = EARTH
REF_FRAME      = TEME
TIME_SYSTEM    = UTC
MEAN_ELEMENT_THEORY = SGP/SGP4

EPOCH          = 2026-02-15T03:24:12.033216
MEAN_MOTION    = 14.11749914
ECCENTRICITY   = .0502266
INCLINATION    = 51.7656
RA_OF_ASC_NODE = 31.3246
ARG_OF_PERICENTER = 281.8305
MEAN_ANOMALY   = 72.6732

EPHEMERIS_TYPE = 0
CLASSIFICATION_TYPE = U
NORAD_CAT_ID   = 25876
ELEMENT_SET_NO = 999
REV_AT_EPOCH   = 35984
BSTAR          = .32383E-3
MEAN_MOTION_DOT = .178E-4
MEAN_MOTION_DDOT = 0

CCSDS_OMM_VERS = 2.0
CREATION_DATE  = 
ORIGINATOR     = 

OBJECT_NAME    = HELIOS 1B
OBJECT_ID      = 1999-064A
CENTER_NAME    = EARTH
REF_FRAME      = TEME
TIME_SYSTEM    = UTC
MEAN_ELEMENT_THEORY = SGP/SGP4

EPOCH          = 2026-02-15T04:21:09.331200
MEAN_MOTION    = 14.87601187
ECCENTRICITY   = .0002284
INCLINATION    = 98.1723
RA_OF_ASC_NODE = 307.7607
ARG_OF_PERICENTER = 104.8060
MEAN_ANOMALY   = 255.3409

EPHEMERIS_TYPE = 0
CLASSIFICATION_TYPE = U
NORAD_CAT_ID   = 25977
ELEMENT_SET_NO = 999
REV_AT_EPOCH   = 68191
BSTAR          = .18486E-3
MEAN_MOTION_DOT = .1622E-4
MEAN_MOTION_DDOT = 0

CCSDS_OMM_VERS = 2.0
CREATION_DATE  = 
ORIGINATOR     = 

OBJECT_NAME    = TERRA
OBJECT_ID      = 1999-068A
CENTER_NAME    = EARTH
REF_FRAME      = TEME
TIME_SYSTEM    = UTC
MEAN_ELEMENT_THEORY = SGP/SGP4

EPOCH          = 2026-02-15T04:25:09.177600
MEAN_MOTION    = 14.60989485
ECCENTRICITY   = .0001126
INCLINATION    = 97.9642
RA_OF_ASC_NODE = 100.4731
ARG_OF_PERICENTER = 226.8412
MEAN_ANOMALY   = 200.3683

EPHEMERIS_TYPE = 0
CLASSIFICATION_TYPE = U
NORAD_CAT_ID   = 25994
ELEMENT_SET_NO = 999
REV_AT_EPOCH   = 39179
BSTAR          = .9763E-4
MEAN_MOTION_DOT = .434E-5
MEAN_MOTION_DDOT = 0

CCSDS_OMM_VERS = 2.0
CREATION_DATE  = 
ORIGINATOR     = 

OBJECT_NAME    = SL-16 R/B
OBJECT_ID      = 2000-006B
CENTER_NAME    = EARTH
REF_FRAME      = TEME
TIME_SYSTEM    = UTC
MEAN_ELEMENT_THEORY = SGP/SGP4

EPOCH          = 2026-02-15T04:36:31.187232
MEAN_MOTION    = 14.15818962
ECCENTRICITY   = .0018095
INCLINATION    = 71.0026
RA_OF_ASC_NODE = 145.1419
ARG_OF_PERICENTER = 221.9532
MEAN_ANOMALY   = 138.0206

EPHEMERIS_TYPE = 0
CLASSIFICATION_TYPE = U
NORAD_CAT_ID   = 26070
ELEMENT_SET_NO = 999
REV_AT_EPOCH   = 34537
BSTAR          = -.87019E-4
MEAN_MOTION_DOT = -.219E-5
MEAN_MOTION_DDOT = 0

CCSDS_OMM_VERS = 2.0
CREATION_DATE  = 
ORIGINATOR     = 

OBJECT_NAME    = TITAN 4B R/B
OBJECT_ID      = 2000-047B
CENTER_NAME    = EARTH
REF_FRAME      = TEME
TIME_SYSTEM    = UTC
MEAN_ELEMENT_THEORY = SGP/SGP4

EPOCH          = 2026-02-15T04:00:42.542784
MEAN_MOTION    = 15.09363553
ECCENTRICITY   = .0037095
INCLINATION    = 67.9886
RA_OF_ASC_NODE = 103.8348
ARG_OF_PERICENTER = 62.9722
MEAN_ANOMALY   = 297.5205

EPHEMERIS_TYPE = 0
CLASSIFICATION_TYPE = U
NORAD_CAT_ID   = 26474
ELEMENT_SET_NO = 999
REV_AT_EPOCH   = 38951
BSTAR          = .17985E-3
MEAN_MOTION_DOT = .2788E-4
MEAN_MOTION_DDOT = 0

CCSDS_OMM_VERS = 2.0
CREATION_DATE  = 
ORIGINATOR     = 

OBJECT_NAME    = ENVISAT
OBJECT_ID      = 2002-009A
CENTER_NAME    = EARTH
REF_FRAME      = TEME
TIME_SYSTEM    = UTC
MEAN_ELEMENT_THEORY = SGP/SGP4

EPOCH          = 2026-02-14T20:47:30.008256
MEAN_MOTION    = 14.39028210
ECCENTRICITY   = .0001353
INCLINATION    = 98.3689
RA_OF_ASC_NODE = 0.0128
ARG_OF_PERICENTER = 87.4996
MEAN_ANOMALY   = 287.4248

EPHEMERIS_TYPE = 0
CLASSIFICATION_TYPE = U
NORAD_CAT_ID   = 27386
ELEMENT_SET_NO = 999
REV_AT_EPOCH   = 25589
BSTAR          = .55207E-4
MEAN_MOTION_DOT = .128E-5
MEAN_MOTION_DDOT = 0

