SL-16 R/B               
1 25400U 98043G   26045.85829861  .00000058  00000+0  43070-4 0  9999
2 25400  98.8214 359.0656 0010973  81.5401 278.7021 14.26044206435736
SL-16 R/B               
1 25407U 98045B   26045.97059346  .00000309  00000+0  18037-3 0  9997
2 25407  71.0087 229.3505 0005650  49.4421 310.7193 14.16187842423880
ISS (ZARYA)             
1 25544U 98067A   26045.79523799  .00007779  00000+0  15107-3 0  9994
2 25544  51.6315 185.5279 0011056  98.8248 261.3993 15.48601910552787
CZ-4B R/B               
1 25732U 99025C   26046.16189672  .00000057  00000+0  48063-4 0  9998
2 25732  98.6672  90.9721 0037915  50.9851  17.4537 14.18260652384973
OKEAN-O                 
1 25860U 99039A   26046.14307900  .00000630  00000+0  89568-4 0  9991
2 25860  97.9493 106.2581 0001833  82.0327 278.1093 14.80297249431053
SL-16 R/B               
1 25861U 99039B   26046.14424117  .00000551  00000+0  76769-4 0  9993
2 25861  98.0016 105.2686 0014151 335.6061  24.4480 14.81698644433522
DELTA 2 R/B             
1 25876U 99041E   26046.14180594  .00001780  00000+0  32383-3 0  9998
2 25876  51.7656  31.3246 0502266 281.8305  72.6732 14.11749914359844
HELIOS 1B               
1 25977U 99064A   26046.18135800  .00001622  00000+0  18486-3 0  9992
2 25977  98.1723 307.7607 0002284 104.8060 255.3409 14.87601187681913
TERRA                   
1 25994U 99068A   26046.18413400  .00000434  00000+0  97630-4 0  9999
2 25994  97.9642 100.4731 0001126 226.8412 200.3683 14.60989485391794
SL-16 R/B               
1 26070U 00006B   26046.19202763 -.00000219  00000+0 -87019-4 0  9991
2 26070  71.0026 145.1419 0018095 221.9532 138.0206 14.15818962345372
TITAN 4B R/B            
1 26474U 00047B   26046.16715906  .00002788  00000+0  17985-3 0  9994
2 26474  67.9886 103.8348 0037095  62.9722 297.5205 15.09363553389514
ENVISAT                 
1 27386U 02009A   26045.86631954  .00000128  00000+0  55207-4 0  9999
2 27386  98.3689   0.0128 0001353  87.4996 287.4248 14.39028210255891
